[
    {
        "Altitude(m)": 558749.6848347319,
        "Argument of Periapsis(deg)": 0.019868973332140504,
        "Eccentricity": 0.0,
        "Inclination(deg)": 53.0,
        "Latitude(deg)": 48.128425973147756,
        "Longitude(deg)": 44.34861702176685,
        "Mean Anomaly(deg)": 68.45667860273277,
        "RAAN(deg)": 89.97043010558404,
        "Satellite Name": "Starlink Shell 1 398",
        "Satellite Number": 398,
        "Semi-Major Axis(m)": 6931778.249405717,
        "Time(s)": 570
    },
    {
        "Altitude(m)": 558811.948965452,
        "Argument of Periapsis(deg)": 0.02021755181165174,
        "Eccentricity": 0.0,
        "Inclination(deg)": 53.0,
        "Latitude(deg)": 48.40026446303062,
        "Longitude(deg)": 45.15389475372511,
        "Mean Anomaly(deg)": 69.08350980628946,
        "RAAN(deg)": 89.96991133550658,
        "Satellite Name": "Starlink Shell 1 398",
        "Satellite Number": 398,
        "Semi-Major Axis(m)": 6931778.249405717,
        "Time(s)": 580
    },
    {
        "Altitude(m)": 558872.8025540431,
        "Argument of Periapsis(deg)": 0.020566130291162974,
        "Eccentricity": 0.0,
        "Inclination(deg)": 53.0,
        "Latitude(deg)": 48.665797701003946,
        "Longitude(deg)": 45.96812824720831,
        "Mean Anomaly(deg)": 69.7103410098462,
        "RAAN(deg)": 89.9693925654291,
        "Satellite Name": "Starlink Shell 1 398",
        "Satellite Number": 398,
        "Semi-Major Axis(m)": 6931778.249405717,
        "Time(s)": 590
    },
    {
        "Altitude(m)": 558932.2083491392,
        "Argument of Periapsis(deg)": 0.020914708770674213,
        "Eccentricity": 0.0,
        "Inclination(deg)": 53.0,
        "Latitude(deg)": 48.924901061463906,
        "Longitude(deg)": 46.79128014056662,
        "Mean Anomaly(deg)": 70.33717221340288,
        "RAAN(deg)": 89.96887379535163,
        "Satellite Name": "Starlink Shell 1 398",
        "Satellite Number": 398,
        "Semi-Major Axis(m)": 6931778.249405717,
        "Time(s)": 600
    },
    {
        "Altitude(m)": 558990.1300358869,
        "Argument of Periapsis(deg)": 0.021263287250185448,
        "Eccentricity": 0.0,
        "Inclination(deg)": 53.0,
        "Latitude(deg)": 49.17744985350508,
        "Longitude(deg)": 47.623300349164275,
        "Mean Anomaly(deg)": 70.96400341695963,
        "RAAN(deg)": 89.96835502527416,
        "Satellite Name": "Starlink Shell 1 398",
        "Satellite Number": 398,
        "Semi-Major Axis(m)": 6931778.249405717,
        "Time(s)": 610
    },
    {
        "Altitude(m)": 559046.532253877,
        "Argument of Periapsis(deg)": 0.021611865729696686,
        "Eccentricity": 0.0,
        "Inclination(deg)": 53.0,
        "Latitude(deg)": 49.42331951579068,
        "Longitude(deg)": 48.4641260531159,
        "Mean Anomaly(deg)": 71.59083462051636,
        "RAAN(deg)": 89.96783625519669,
        "Satellite Name": "Starlink Shell 1 398",
        "Satellite Number": 398,
        "Semi-Major Axis(m)": 6931778.249405717,
        "Time(s)": 620
    },
    {
        "Altitude(m)": 559101.3806145561,
        "Argument of Periapsis(deg)": 0.02196044420920792,
        "Eccentricity": 0.0,
        "Inclination(deg)": 53.0,
        "Latitude(deg)": 49.66238582244399,
        "Longitude(deg)": 49.31368002497098,
        "Mean Anomaly(deg)": 72.21766582407307,
        "RAAN(deg)": 89.96731748511921,
        "Satellite Name": "Starlink Shell 1 398",
        "Satellite Number": 398,
        "Semi-Major Axis(m)": 6931778.249405717,
        "Time(s)": 630
    },
    {
        "Altitude(m)": 559154.6417181533,
        "Argument of Periapsis(deg)": 0.02230902268871916,
        "Eccentricity": 0.0,
        "Inclination(deg)": 53.0,
        "Latitude(deg)": 49.894525099713945,
        "Longitude(deg)": 50.17187150448794,
        "Mean Anomaly(deg)": 72.84449702762976,
        "RAAN(deg)": 89.96679871504175,
        "Satellite Name": "Starlink Shell 1 398",
        "Satellite Number": 398,
        "Semi-Major Axis(m)": 6931778.249405717,
        "Time(s)": 640
    },
    {
        "Altitude(m)": 559206.2831701229,
        "Argument of Periapsis(deg)": 0.022657601168230398,
        "Eccentricity": 0.0,
        "Inclination(deg)": 53.0,
        "Latitude(deg)": 50.11961445305435,
        "Longitude(deg)": 51.03859458248482,
        "Mean Anomaly(deg)": 73.47132823118648,
        "RAAN(deg)": 89.96627994496427,
        "Satellite Name": "Starlink Shell 1 398",
        "Satellite Number": 398,
        "Semi-Major Axis(m)": 6931778.249405717,
        "Time(s)": 650
    },
    {
        "Altitude(m)": 559256.2735970624,
        "Argument of Periapsis(deg)": 0.023006179647741636,
        "Eccentricity": 0.0,
        "Inclination(deg)": 53.0,
        "Latitude(deg)": 50.33753200416471,
        "Longitude(deg)": 51.91372830125947,
        "Mean Anomaly(deg)": 74.09815943474321,
        "RAAN(deg)": 89.9657611748868,
        "Satellite Name": "Starlink Shell 1 398",
        "Satellite Number": 398,
        "Semi-Major Axis(m)": 6931778.249405717,
        "Time(s)": 660
    },
    {
        "Altitude(m)": 559304.5826621227,
        "Argument of Periapsis(deg)": 0.023354758127252868,
        "Eccentricity": 0.0,
        "Inclination(deg)": 53.0,
        "Latitude(deg)": 50.54815713742004,
        "Longitude(deg)": 52.797136795776346,
        "Mean Anomaly(deg)": 74.72499063829993,
        "RAAN(deg)": 89.96524240480933,
        "Satellite Name": "Starlink Shell 1 398",
        "Satellite Number": 398,
        "Semi-Major Axis(m)": 6931778.249405717,
        "Time(s)": 670
    },
    {
        "Altitude(m)": 559351.1810799042,
        "Argument of Periapsis(deg)": 0.023703336606764106,
        "Eccentricity": 0.0,
        "Inclination(deg)": 53.0,
        "Latitude(deg)": 50.751370755003656,
        "Longitude(deg)": 53.688667967970794,
        "Mean Anomaly(deg)": 75.35182184185663,
        "RAAN(deg)": 89.96472363473185,
        "Satellite Name": "Starlink Shell 1 398",
        "Satellite Number": 398,
        "Semi-Major Axis(m)": 6931778.249405717,
        "Time(s)": 680
    },
    {
        "Altitude(m)": 559396.0406308289,
        "Argument of Periapsis(deg)": 0.024051915086275345,
        "Eccentricity": 0.0,
        "Inclination(deg)": 53.0,
        "Latitude(deg)": 50.94705553994431,
        "Longitude(deg)": 54.58815372514996,
        "Mean Anomaly(deg)": 75.97865304541332,
        "RAAN(deg)": 89.96420486465438,
        "Satellite Name": "Starlink Shell 1 398",
        "Satellite Number": 398,
        "Semi-Major Axis(m)": 6931778.249405717,
        "Time(s)": 690
    },
    {
        "Altitude(m)": 559439.1341749713,
        "Argument of Periapsis(deg)": 0.024400493565786583,
        "Eccentricity": 0.0,
        "Inclination(deg)": 53.0,
        "Latitude(deg)": 51.13509622613379,
        "Longitude(deg)": 55.49541027477159,
        "Mean Anomaly(deg)": 76.60548424897004,
        "RAAN(deg)": 89.96368609457691,
        "Satellite Name": "Starlink Shell 1 398",
        "Satellite Number": 398,
        "Semi-Major Axis(m)": 6931778.249405717,
        "Time(s)": 700
    },
    {
        "Altitude(m)": 559480.4356653559,
        "Argument of Periapsis(deg)": 0.024749072045297815,
        "Eccentricity": 0.0,
        "Inclination(deg)": 53.0,
        "Latitude(deg)": 51.31537987428177,
        "Longitude(deg)": 56.410236967748915,
        "Mean Anomaly(deg)": 77.23231545252679,
        "RAAN(deg)": 89.96316732449944,
        "Satellite Name": "Starlink Shell 1 398",
        "Satellite Number": 398,
        "Semi-Major Axis(m)": 6931778.249405717,
        "Time(s)": 710
    },
    {
        "Altitude(m)": 559519.9201607172,
        "Argument of Periapsis(deg)": 0.025097650524809053,
        "Eccentricity": 0.0,
        "Inclination(deg)": 53.0,
        "Latitude(deg)": 51.487796152652315,
        "Longitude(deg)": 57.332416720843085,
        "Mean Anomaly(deg)": 77.85914665608348,
        "RAAN(deg)": 89.96264855442196,
        "Satellite Name": "Starlink Shell 1 398",
        "Satellite Number": 398,
        "Semi-Major Axis(m)": 6931778.249405717,
        "Time(s)": 720
    },
    {
        "Altitude(m)": 559557.5638377111,
        "Argument of Periapsis(deg)": 0.02544622900432029,
        "Eccentricity": 0.0,
        "Inclination(deg)": 53.0,
        "Latitude(deg)": 51.65223762130701,
        "Longitude(deg)": 58.26171650978586,
        "Mean Anomaly(deg)": 78.4859778596402,
        "RAAN(deg)": 89.9621297843445,
        "Satellite Name": "Starlink Shell 1 398",
        "Satellite Number": 398,
        "Semi-Major Axis(m)": 6931778.249405717,
        "Time(s)": 730
    },
    {
        "Altitude(m)": 559593.3440025584,
        "Argument of Periapsis(deg)": 0.02579480748383153,
        "Eccentricity": 0.0,
        "Inclination(deg)": 53.0,
        "Latitude(deg)": 51.808600018469484,
        "Longitude(deg)": 59.197886424401794,
        "Mean Anomaly(deg)": 79.1128090631969,
        "RAAN(deg)": 89.96161101426702,
        "Satellite Name": "Starlink Shell 1 398",
        "Satellite Number": 398,
        "Semi-Major Axis(m)": 6931778.249405717,
        "Time(s)": 740
    },
    {
        "Altitude(m)": 559627.2391021425,
        "Argument of Periapsis(deg)": 0.026143385963342765,
        "Eccentricity": 0.0,
        "Inclination(deg)": 53.0,
        "Latitude(deg)": 51.9567825475318,
        "Longitude(deg)": 60.14066031517308,
        "Mean Anomaly(deg)": 79.73964026675363,
        "RAAN(deg)": 89.96109224418953,
        "Satellite Name": "Starlink Shell 1 398",
        "Satellite Number": 398,
        "Semi-Major Axis(m)": 6931778.249405717,
        "Time(s)": 750
    }
]